STARLETTE               
1 07646U 75010A   09091.46577130 -.00000132  00000-0  76963-5 0  9047
2 07646  49.8242  73.6945 0205867 179.3602 180.7590 13.82271454725072
LAGEOS 1                
1 08820U 76039A   09090.87758423 -.00000007  00000-0  10000-3 0  7557
2 08820 109.8141 185.9360 0044905 208.2726 151.5489  6.38664566512107
EGP                     
1 16908U 86061A   09091.50763141 -.00000083  00000-0  10000-3 0  8693
2 16908  50.0110  34.7654 0011212  23.0581 337.0755 12.44461753698053
LAGEOS 2                
1 22195U 92070B   09091.53970728 -.00000009  00000-0  10000-3 0  9687
2 22195  52.6591 279.3274 0136854 319.1148  39.9216  6.47294213388701
STELLA                  
1 22824U 93061B   09091.55085838 -.00000056  00000-0 -57389-5 0  2384
2 22824  98.4698  42.2122 0006564 158.0259 202.1202 14.27282819808254
WESTPAC                 
1 25398U 98043E   09091.17907368 -.00000022  00000-0  82211-5 0  4899
2 25398  98.3347 116.5527 0002345  83.3980 276.7474 14.22674818557068
GRACE 1                 
1 27391U 02012A   09091.29327288  .00000699  00000-0  20000-4 0  1584
2 27391  89.0211  13.2329 0018875  50.8471 309.4498 15.34137370393522
GRACE 2                 
1 27392U 02012B   09092.14085956  .00000823  00000-0  23731-4 0  1597
2 27392  89.0213  13.1341 0019734  49.6332 310.6659 15.34138255393655
